State,Charger Name,Address,Latitude,Longitude
Alabama,"Athens, AL Supercharger","21282 Athens-Limestone Blvd., Athens, AL 35613",34.78686279726254,-86.94140778836169
Alabama,"Birmingham, AL Supercharger","2221 Richard Arrington Junior Blvd., Birmingham, AL 35203-1103",,
Alabama,Greenville Supercharger,"219 Interstate Drive, Greenville, AL 36037",31.856013,-86.6357876
Alabama,Mobile Supercharger,"3201 Airport Blvd, Mobile, AL 36606-3202",30.6715753,-88.1184565
Alabama,"Oxford, AL Supercharger","1105 Oxford Exchange Blvd, Oxford, AL 36203-0000",33.6100022,-85.7820781
Alabama,Tesla - Fultondale - 1334 Walker Chapel Rd,"1009 Fulton Ave, Gardendale, AL 35071",,
Alaska,"Soldotna, AK Supercharger","43540 Kleeb Loop, Soldotna, AK 99669",,
Arizona,"Buckeye, AZ Supercharger","416 S Watson Rd, Buckeye, AZ 85326-3419",33.4429767,-112.556893
Arizona,"Cordes Lakes, AZ Supercharger","14925 Cordes Lakes Rd, Mayer, AZ 86333",34.3274507,-112.1184462
Arizona,"Gila Bend, AZ Supercharger","826 826 W Pima St., Gila Bend, AZ 85337-3033",,
Arizona,"Kingman, AZ - West Andy Devine Supercharger","120 W Andy Devine Ave, Kingman, AZ 86401",35.22361857673544,-114.00434646734622
Arizona,"New River, AZ Supercharger","3906 West New River Road, New River, AZ 85087",33.915769,-112.1441944
Arizona,"Phoenix, AZ","5715 North 19th Avenue, Phoenix, AZ 85015",33.5216746,-112.0991418
Arizona,"Phoenix, AZ - East Camelback Road Supercharger","2502 East Camelback Road, Phoenix, AZ 85016",33.5118936,-112.026792
Arizona,"Quartzsite, AZ Supercharger","1451 West Main Street, Quartzsite, AZ 85346-5359",,
Arizona,"Scottsdale, AZ - North Kierland Blvd. Supercharger","15205 North Kierland Boulevard, Scottsdale, AZ 85254",,
Arizona,"Tempe, AZ Supercharger","5000 South Arizona Mills Circle, Tempe, AZ 85282",33.383166700000004,-111.9645855597559
Arizona,"Tucson, AZ Supercharger","9255 S Rita Rd, Tucson, AZ 85747",32.08444055,-110.80332433435082
Arizona,"Wickenburg, AZ Supercharger","155 N Tegner, Wickenburg, AZ 85390-3427",,
Arizona,"Yuma, AZ Supercharger","310 North Madison Avenue, Yuma, AZ 85364-1417",,
Arkansas,"Brinkley, AR Supercharger","1401 Pinecrest Street, Brinkley, AR 72021",,
Arkansas,"Lowell, AR Supercharger","898 W Monroe Ave, Lowell, AR 72745",36.2553544,-94.15264
California,333 S Abbott Ave - Milpitas,"333 South Abbott Avenue, Milpitas , CA 95035",37.4255593,-121.914118
California,"Alhambra, CA - 2400 W Commonwealth Ave","2400 West Commonwealth Avenue, Alhambra , CA 91803",34.0864706,-118.14989499724433
California,"Anaheim, CA","156 N Imperial Hwy, Anaheim, CA 92807",33.86260935,-117.79046944999999
California,"Antioch, CA Supercharger","5769 Lone Tree Way, Antioch, CA 94531",37.964431250000004,-121.73803680106978
California,"Atascadero, CA - 900 El Camino Real","900 El Camino Real, Atascadero, CA 93422",35.52001186915888,-120.70295230841121
California,"Azusa, CA","809 N Azusa Ave, Azusa , CA 91702",34.136258850000004,-117.90813127822062
California,"Bakersfield, CA","3100 Camino Del Rio Ct, Bakersfield , CA 93308",35.3826859,-119.0474746
California,"Barstow, CA - 2796 Tanger Way","2796 Tanger Way, Barstow, CA 92311",34.8446821,-117.08567417242764
California,"Big Sur, CA - Ventana Supercharger","48123 Highway 1, Big Sur, CA 93920",36.2308585,-121.762805
California,"Brea, CA Supercharger","1065 Brea Mall, Brea, CA 92821",33.91681935,-117.88318558456494
California,Burbank - North Third Street,"495 North Third Street, Burbank, CA 91502",,
California,Buttonwillow Supercharger,"20673 Tracy Ave., Buttonwillow, CA 93206-9782",,
California,"Calabasas, CA Supercharger","4799 Commons Way, Calabasas, CA 91302",34.15391755092332,-118.64397478216402
California,"Carlsbad, CA Supercharger","7710-7770 El Camino Real, Carlsbad, CA 92009-8562",33.0842037,-117.266367
California,"Chatsworth, CA - De Soto Ave","9185 De Soto Avenue, Chatsworth , CA 91311",34.23787913636363,-118.58863468181818
California,"Chowchilla, CA","1225 E Robertson Blvd, Chowchilla, CA 93610",37.11569030158002,-120.26900652294161
California,"City of Industry, CA - Gale Avenue Supercharger","18558 Gale Ave, City of Industry, CA 91748",33.99495025,-117.8999678099373
California,"Commerce, CA Supercharger","100 Citadel Drive, Commerce, CA 90040",34.0057376,-118.1525356
California,"Copperopolis, CA Supercharger","200 Town Square Rd, Copperopolis, CA 95228",,
California,"Corte Madera, CA","1618 Redwood Hwy, Corte Madera, CA 94925",37.928754969050395,-122.5152503106568
California,Crescent City Supercharger,"1000 Front Street, Crescent City, CA 95531-4307",,
California,"Cupertino, CA - Stevens Creek Boulevard Supercharger","20745 Stevens Creek Boulevard, Cupertino, CA 95014",37.3243862,-122.03606345684983
California,"Daly City, CA","6917 Mission Street, Daly City, CA 94014",37.697255730939645,-122.46455928166952
California,"Diamond Bar, CA Supercharger","2785 S Diamond Bar Blvd, Diamond Bar, CA 91765",33.97489402262521,-117.8367018880053
California,"Dublin, CA","7841 Amador Valley Blvd, Dublin , CA 94568",37.7064421,-121.9351034
California,"East Palo Alto, CA","1700 E Bayshore Rd, East Palo Alto, CA 94303",37.460599,-122.1387729
California,El Centro Supercharger,"3551 S Dogwood Rd, El Centro, CA 92243-9679",32.7608432,-115.5324438
California,"El Portal, CA","11136 CA-140, El Portal, CA 95318",37.6778816,-119.7668931
California,"Emeryville, CA - Powell Street Plaza Supercharger","5795 Christie Avenue, Emeryville, CA 94608",37.83885003361244,-122.29496435659455
California,"Fairfield, CA - Holiday Lane Supercharger","1350 Holiday Lane, Fairfield, CA 94534",38.25594975,-122.06534129413181
California,Fish Camp Supercharger,"1122 Highway 41, Fish Camp, CA 93623",37.47577852686205,-119.63800963480226
California,"Fontana, CA Supercharger","152234 Summit Avenue, Fontana, CA 92336",34.1510216,-117.471145
California,"Fountain Valley, CA Supercharger","9430 Warner Ave, Fountain Valley, CA 92708",33.714978200000004,-117.9642931943755
California,"Fremont, CA - 39201 Fremont Blvd Supercharger","39201 Fremont Blvd., Fremont, CA 94538",37.544506,-121.983822
California,"Fresno, CA - North Blackstone Avenue Supercharger","7965 N Blackstone Ave, Fresno, CA 93720",36.85114825,-119.79148519437946
California,Gilroy Premium Outlets,"Leavesley Rd, Gilroy, CA 95020-3647",37.0218941,-121.56911979985222
California,"Glendale, CA Supercharger","899 Americana Way, Glendale, CA 91210",34.1445749,-118.257714
California,"Greenbrae, CA Supercharger","50 Bon Air Center, Greenbrae, CA 94904",37.946101999999996,-122.52395012073775
California,Gustine Supercharger,"12411 CA-33, Gustine, CA 95322",37.25696807601295,-120.99856400373788
California,"Hawthorne, CA - West 120th Street Supercharger","2700 West 120th Avenue, Hawthorne, CA 90250",,
California,"Hesperia, CA - 14101 Main Street","14135 Main Street, Hesperia , CA 92345",34.42666,-117.35458860618239
California,"Hollister, CA",", , CA 95023",36.84429556117825,-121.39359046102719
California,Indio Supercharger,"42100 Jackson St, Indio, CA 92203",33.7412578,-116.21496995000001
California,"Irvine, CA - Culver Drive Supercharger","14200-14474 Culver Dr, Irvine, CA 92604",,
California,"Irvine, CA - Walnut Ave Supercharger","5406 Walnut Ave, Irvine, CA 92604",33.689643591836735,-117.77160763265306
California,"King City, CA","600 Canal Street, King City, CA 93930",36.202553949999995,-121.12970615172027
California,"Lake Arrowhead, CA Supercharger","28200 CA-189, Lake Arrowhead, CA 92352",34.252902,-117.1893827
California,"Lake Forest, CA","24251 Muirlands Blvd, Lake Forest, CA 92630",33.630449999999996,-117.70647545597402
California,"Lawndale, CA","15205 Hawthorne Boulevard, Lawndale, CA 90260",33.89299602941176,-118.35225981176471
California,"Livermore, CA","3020 West Jack London Boulevard, Livermore, CA 94551",37.6961924,-121.8447477
California,"Long Beach, CA Supercharger","6521 Pacific Coast Hwy, Long Beach, CA 90803",33.75847209395973,-118.11142255704698
California,"Los Angeles, CA","8985 Venice Blvd, Los Angeles, CA 90034",34.0268336,-118.3932467
California,"Los Angeles, CA - W Olympic Boulevard","11355 West Olympic Boulevard, Los Angeles, CA 90064",34.03775175,-118.4431433514296
California,"Lost Hills, CA","1-5 CA-46, Lost Hills, CA 93249",35.61603218155398,-119.67689416828027
California,"Malibu, CA Supercharger","3862 Cross Creek Road, Malibu, CA 90265",34.03598632892616,-118.68553167472757
California,"Manhattan Beach, CA Supercharger","3200 North Sepulveda Boulevard, Manhattan Beach, CA 90266",33.898423290134154,-118.39591797642977
California,"Marin City, CA - Donahue Street Supercharger","190 Donahue Street, Marin City, CA 94965",37.8730028,-122.510144
California,"Mariposa, CA","5034 Coakley Cir, Mariposa, CA 95338",37.49021249243981,-119.97261095976047
California,"Menifee, CA Supercharger","30340 Haun Road, Menifee, CA 92584",33.680243649999994,-117.17221911395254
California,"Milpitas, CA - Great Mall Supercharger","447 Great Mall Drive, Milpitas, CA 95035",37.417162,-121.8987485
California,"Mission Viejo, CA Supercharger","555 The Shops at Mission Viejo, Mission Viejo, CA 92691",33.5580927,-117.66911638082841
California,"Mojave, CA - Sierra Highway Superchaeger","16246 Sierra Hwy, Mojave, CA 93501",35.056811,-118.1746068
California,"Monterey, CA Supercharger","1410 Del Monte Center, Monterey, CA 93940-6168",,
California,"Morgan Hill, CA Supercharger","1061 Cochrane Road, Morgan Hill, CA 95037",37.1574972,-121.65459094501742
California,Mt. Shasta Supercharger,"111 Morgan Way, Mt. Shasta, CA 96067-2557",,
California,"Napa, CA","4000 Bel Aire Plaza, Napa, CA 94558",38.32250605,-122.308217646586
California,"Needles, CA","2410 W Broadway St, Needles, CA 92363",34.8508857,-114.6229675
California,"Newhall, CA","23502 Newhall Avenue, Santa Clarita, CA 91321",34.36798670696448,-118.51010572304021
California,"Oakhurst, CA Supercharger","40489 CA-41, Oakhurst, CA 93644",37.33454245,-119.64566430935173
California,"Ojai, CA Supercharger","987 West Ojai Avenue, Ojai, CA 93023",34.44215965,-119.25857437269181
California,"Ontario, CA - South Vineyard Avenue","2440 S Vineyard Ave, Ontario , CA 91761",34.031470386087214,-117.61096699586173
California,"Palm Springs, CA Supercharger","101 North Museum Drive, Palm Springs, CA 92262",33.8241898,-116.55001297532526
California,"Palo Alto, CA - 445 Bryant Street","445 Bryant St, Palo Alto, CA 94301",37.44649759802612,-122.16239223435413
California,"Pasadena, CA - East Glenarm Street Supercharger","88 E Glenarm St, Pasadena, CA 91105",34.127449438775514,-118.14782769387756
California,"Paso Robles, CA","1111 Riverside Avenue, Paso Robles , CA 93446",35.6263261,-120.68734354540672
California,"Petaluma, CA Supercharger","401 KENNILWORTH DRIVE, Petaluma, CA 94952-3400",,
California,"Placerville, CA Supercharger","1216-1252 Broadway, Placerville, CA 95667",,
California,"Pleasanton, CA","6770 Santa Rita Road, Pleasanton , CA 94588",37.699728,-121.87104705915536
California,Promenade Temecula,"40820 Winchester Rd., Temecula, CA 92591-5525",33.5241559,-117.152548
California,"Rancho Mirage, CA Supercharger","71800 CA-111, Rancho Mirage, CA 92270",33.74032675,-116.41062327472793
California,"Redding, CA","1900 Hilltop Dr, Redding, CA 96002",40.57965955173859,-122.35795945811417
California,Redondo Beach Supercharger,"2410 Marine Avenue, Redondo Beach, CA 90278-1103",,
California,"Ripon, CA","710 Jack Tone Rd, Ripon, CA 95366",37.73349600662496,-121.141905
California,Riverside-Lindbergh,"7920 Lindbergh Drive, Riverside, CA 92508",33.906121549999995,-117.3246397255061
California,"Roseville, CA - 1925 Douglas Blvd","1925 Douglas Blvd, Roseville, CA 95661",38.746265449999996,-121.25406124548135
California,"SCRAP Dublin, CA - 4288 Dublin Boulevard","4288 Dublin Blvd, Dublin, CA 94568",37.704727,-121.8760901
California,"Sacramento, CA - Arden Way Supercharger","1689 Arden Way, Sacramento, CA 95815",38.6010809,-121.426958
California,Sacramento-Rocklin,"4361 Granite Drive, Rocklin, CA 95677",38.800397,-121.210784
California,"San Bruno, CA - 1150 El Camino Real","1150 El Camino Real, San Bruno, CA 94066",37.6363085,-122.4189509
California,"San Clemente, CA - Avenida Vista Hermosa Supercharger","990 990 Avenida Vista Hermosa, San Clemente, CA 92673",,
California,"San Diego, CA","7373 Clairemont Mesa Blvd, San Diego, CA 92111",32.8323799,-117.1596661
California,"San Diego, CA - Balboa Ave Supercharger","5555 Balboa Ave, San Diego, CA 92111",32.81837145,-117.17903618541492
California,"San Diego, CA - Carmel Mountain Road Supercharger","4639 Carmel Mountain Rd, San Diego, CA 92130",32.920403,-117.21428125802504
California,"San Diego, CA - Mission Center Road Supercharger","5680 Mission Center Rd, San Diego, CA 92108",32.776023,-117.154199
California,"San Francisco, CA","2300 16th St., San Francisco, CA 94103",37.7665115,-122.4087
California,"San Francisco, CA Supercharger","601 Van Ness Avenue, San Francisco, CA 94102",37.7811242,-122.4207576
California,"San Jose, CA - 117 Bernal Rd (Bernal Plaza)","125 Bernal Road, San Jose , CA 95119",37.23235,-121.7749282
California,"San Jose, CA - 55 Race St","55 Race St, San Jose, CA 95126",37.33026035,-121.9121268493931
California,"San Jose, CA - Cherry Avenue Supercharger","5160 Cherry Avenue, San Jose, CA 95118",37.2570657,-121.87293580437114
California,"San Jose, CA - Holger Way Supercharger","95 Holger Way, San Jose, CA 95134",37.4183034,-121.9555121
California,"San Juan Capistrano, CA","26701 Verdugo St, San Juan Capistrano , CA 92675",33.5017833,-117.663945
California,"San Luis Obispo, CA - Higuera St. Supercharger","3897 South Higuera St, San Luis Obispo, CA 93401",35.247164,-120.6728294
California,"San Marcos, CA Supercharger","573 Grand Ave, San Marcos, CA 92069",33.13805014450229,-117.17944166459088
California,"San Mateo, CA","2940 South Norfolk Street, San Mateo, CA 94403",37.545469,-122.284478
California,"San Mateo, CA - Bridgepointe Pkwy Supercharger","2220 Bridgepointe Pkwy, San Mateo, CA 94404-1569",37.55861665,-122.28326006894977
California,"San Ramon, CA - Diablo Plaza Supercharger","2415-2505 San Ramon Valley Boulevard, San Ramon, CA 94583",,
California,"Sand City, CA Supercharger","2040 California Ave, Sand City, CA 93955",36.6209786,-121.8436714
California,"Santa Barbara, CA Supercharger","3943 State Street, Santa Barbara, CA 93105",34.4391887,-119.7528051
California,"Santa Cruz, CA Supercharger","911 Soquel Ave, Santa Cruz, CA 95062",36.978935899999996,-122.01461495213289
California,"Santa Monica, CA Supercharger","1819 Cloverfield Blvd, Santa Monica, CA 90404",34.02539266714647,-118.47002171210592
California,"Santa Ysabel, CA Supercharger","30275 CA-78, Santa Ysabel, CA 92070",33.108722,-116.673905
California,"Sherman Oaks, CA","15301 Ventura Boulevard, Sherman Oaks, CA 91403",34.1551997,-118.466645
California,"Solana Beach, CA","437 Hwy 101, Solana Beach, CA 92075",32.986145,-117.271038
California,"Sonoma, CA (Wall Connector)","276 East Napa Street, Sonoma, CA 95476",38.2917212,-122.45268612456286
California,"South San Francisco, CA Supercharger","250 Gateway Boulevard, South San Francisco, CA 94080",37.65108500762913,-122.40370221962785
California,"Suisun City, CA (190 Pittman Rd)","190 Pittman Rd, Fairfield, CA 94534",38.221425999999994,-122.12664543341708
California,"Susanville, CA Supercharger","900 Skyline Rd, Susanville, CA 96130",40.430568050000005,-120.65759315378895
California,"Tejon Ranch, CA – Outlets at Tejon Pkwy Supercharger","5701 Outlets at Tejon Pkwy, Arvin, CA 93203",34.9851797,-118.940722
California,Tesla - Thousand Oaks - 2000 Corporate Center Dr,"2000 Corporate Center Dr, Thousand Oaks, CA 91320-1400",,
California,Tesla Collision Ontario,"2837 E Cedar St, Ontario, CA 91761",34.037524780185464,-117.63724266729719
California,"Thousand Oaks, CA - East Thousand Oaks Boulevard Supercharger","4000 East Thousand Oaks Boulevard, Thousand Oaks, CA 91362",34.16113847954996,-118.8235514516604
California,"Tracy, CA - West Grant Line Road Supercharger","2850 W Grant Line Rd, Tracy, CA 95304",37.753856374391276,-121.46901240420405
California,Truckee Donner Pass Supercharger,"11290 Donner Pass Rd, Truckee, CA 96161-4808",,
California,"Tustin, CA","1705 Flight Way, Tustin, CA 92782",33.70508425,-117.83857885398646
California,Twentynine Palms Supercharger,"73829 Baseline Road, Twentynine Palms, CA 92277-4125",,
California,"Union City, CA Supercharger","34536 Alvarado-Niles Road, Union City, CA 94587",37.5872177,-122.0197208
California,Vacaville Supercharger,"321 Nut Tree Road, Vacaville, CA 95687-3242",,
California,"Vallejo, CA - Solano Avenue Supercharger","2155 Solano Ave, Vallejo, CA 94590",38.10331539791632,-122.23572746176737
California,"Ventura, CA - 4095 Telegraph Rd","4095 Telegraph Rd, Ventura, CA 93003",34.27469945,-119.23954500185869
California,"Visalia, CA","6603 Betty Drive, Visalia, CA 93291",,
California,"Walnut Creek, CA","2290 Oak Grove Road, Walnut Creek, CA 94598",37.92944195,-122.01612760761758
California,"Weaverville, CA Supercharger","1665 Main St, Weaverville, CA 96093",40.7210621,-122.9271167
California,"West Hollywood, CA Supercharger","8775 Sunset Blvd, West Hollywood, CA 90069",34.091565450000004,-118.38259850944546
California,"Williams, CA Supercharger","464 6th Street, Williams, CA 95987",39.15554208163265,-122.14879067346939
California,"Yermo, CA - Plan 1","40865 Sunrise Canyon Road, Yermo, CA 92398",34.918157659335236,-116.77673144581836
California,"Yorba Linda, CA","18220 Yorba Linda Blvd, Yorba Linda, CA 92886",33.887403500000005,-117.81424869536428
California,"Yucca Valley, CA Supercharger","57220-57274 Twentynine Palms Highway, Yucca Valley, CA 92284",,
Colorado,Alamosa CO,"720 Main St, Alamosa, CO 81101",37.467903199999995,-105.86815309611742
Colorado,"Boulder, CO Supercharger","1710 29th Street, Boulder, CO 80301",40.01727744340296,-105.25585165311696
Colorado,"Centennial, CO Supercharger","9555 E. County Line Rd, Centennial, CO 80112",39.56608761715776,-104.87784899422657
Colorado,"Craig, CO Supercharger","700 E Victory Way, Craig, CO 81625",40.51418255555556,-107.54016127777777
Colorado,"Denver, CO - Pena Blvd - Airport 1","5940 Tower Rd, Denver, CO 80249",39.8043667,-104.7700923835555
Colorado,"Edwards, CO Supercharger","434 Edwards Access Rd, Edwards, CO 81632",39.647825086398676,-106.58929687410374
Colorado,"Grand Junction, CO Supercharger","2424 U.S-6, Grand Junction, CO 81505-1109",,
Colorado,"Kremmling, CO - Park Avenue Supercharger","605 Park Ave, Kremmling, CO 80459",40.05942335,-106.38781945
Colorado,"Limon, CO Supercharger","2221 6th St., Limon, CO 80828",39.2689484,-103.708838
Colorado,"Montrose, CO Supercharger","533 N 1st St, Montrose, CO 81401",38.48129907252807,-107.87616519438166
Colorado,"Parachute, CO","28 Cardinal Way, Parachute, CO 81635",39.452581,-108.04669127736061
Colorado,"Rifle, CO","675 Wapiti Ct, Rifle, CO 81650",,
Colorado,"Superior, CO - South Marshall Road","2 S Marshall Rd, Superior, CO 80027",39.95469525,-105.16507092452144
Colorado,"Trinidad, CO Supercharger","9960 Santa Fe Trail, Trinidad, CO 81082-3968",,
Connecticut,"Danbury, CT Supercharger","7 Backus Ave, Danbury, CT 06810-7422",41.379094,-73.483116
Connecticut,"Fairfield, CT - Northbound Supercharger","165 Round Hill Rd, Fairfield, CT 06824",41.1464283,-73.2561067
Connecticut,"Greenwich, CT South Supercharger","11, Greenwich, CT 06830-6831",,
Connecticut,"Hartford, CT - Leibert Road Supercharger","165 Leibert Road, Hartford, CT 06120",41.78528594459994,-72.65679027217386
Connecticut,"Madison, CT - Southbound Supercharger","1-95 South Street, Madison, CT 06443",41.27328854850021,-72.55311265022401
Connecticut,Milford - Boston Post Road Supercharger,"1201 Boston Post Road, Milford, CT 06460",41.23585025,-73.03577207827837
Connecticut,"Mystic, CT Supercharger","12 Coogan Boulevard, Mystic, CT 06355",,
Connecticut,"New Milford, CT Supercharger","291 Danbury Rd, New Milford, CT 06776",41.5387609,-73.42148100846295
Connecticut,"Rocky Hill, CT Supercharger","632 Cromwell Ave, Rocky Hill, CT 06067",41.6535236,-72.6786779
Connecticut,"Vernon, CT","145 Talcottville Road, Vernon , CT 06066",41.8315112,-72.4945367
Delaware,"Claymont, DE - Philadelphia Pike Supercharger","2621 Philadelphia Pike, Claymont, DE 19703",39.79423825,-75.46897681179652
Delaware,"Lewes, DE Supercharger","17663 Dartmouth Drive, Lewes, DE 19958-4203",,
Delaware,"New Castle, DE Supercharger","4000 N Dupont Hwy, New Castle, DE 19720",39.709739,-75.5623573
Delaware,"Rehoboth Beach, DE","19791 Coastal Highway, Rehoboth Beach , DE 19971",38.70760696611695,-75.09044173421135
District Of Columbia,"Washington, DC","3401 Idaho Ave NW, Washington, DC 20016",38.935149,-77.073795
District Of Columbia,"Washington, DC Supercharger","1855 Wisconsin Ave NW, Washington, DC 20007",38.91616775,-77.06726070879239
Florida,"Alachua, FL Supercharger","15560 NW US Hwy 441, Alachua, FL 32615",,
Florida,"Arcadia, FL Supercharger","1737 E Oak St, Arcadia, FL 34266",27.213306637860764,-81.85430851575197
Florida,"Big Pine Key, FL Supercharger","251 Key Deer Blvd, Big Pine Key, FL 33043",24.6730802,-81.3569924
Florida,"Brandon, FL Supercharger","2400 W Brandon Blvd, Brandon, FL 33511-4721",,
Florida,"Celebration, FL Supercharger","6210 W Irlo Bronson Memorial Hwy, Celebration, FL 34747",28.332580243081598,-81.53251189265178
Florida,"Crestview, FL Supercharger","2670 S Ferdon Blvd, Crestview, FL 32536",30.7333901,-86.5672179
Florida,"Davenport, FL Supercharger","8103 Lake Wilson Rd, Davenport, FL 33896",,
Florida,DeFuniak Springs Supercharger,"Corner of Baldwin Ave. & 10th Street, De Funiak Springs, FL 32435-2853",,
Florida,"Deltona, FL Supercharger","3400 Howland Blvd, Deltona, FL 32725",28.9495911,-81.2510665
Florida,Florida City Supercharger,"33505 South Dixie Hwy, Florida City, FL 33034-5628",,
Florida,"Fort Lauderdale, FL - Powerline Road Supercharger","6191 Powerline Rd, Fort Lauderdale, FL 33309",26.205482538116932,-80.1559261256662
Florida,"Fort Myers, FL - Gulf Coast Main Street Supercharger","9903 Gulf Coast Main Street, Fort Meyers, FL 33913",,
Florida,"Gainesville, FL Supercharger","3217 Southwest 35th Boulevard, Gainesville, FL 32608",,
Florida,"Hialeah, FL Supercharger","18600 NW 87th Ave, Hialeah, FL 33015",25.943028,-80.3442783
Florida,"Jacksonville, FL - County Road Supercharger","2220 County Road 210, St. Johns, FL 32259",30.038978242218473,-81.58312486039782
Florida,"Jacksonville, FL - Wilson Boulevard Supercharger","6787 Wilson Blvd, Jacksonville, FL 32210",30.2707851,-81.7557602
Florida,"Kissimmee, FL Supercharger","7940 W Irlo Bronson Memorial Hwy, Kissimmee, FL 34747",28.304076691393426,-81.459849343885
Florida,"Lake City, FL Supercharger","2941 W US Hwy 90, Lake City, FL 32055-7284",,
Florida,"Land O' Lakes, FL Supercharger","25155 Maren Way, Land O' Lakes, FL 33559",28.189394,-82.4001274
Florida,"Madison, FL Supercharger","3907 FL-14, Madison, FL 32340",30.4356123073247,-83.45187371728935
Florida,"Melbourne, FL Supercharger","4429 FL-518, Melbourne, FL 32934",28.12049781274,-80.7007286534049
Florida,"Miami Gardens, FL (Wawa 5284)","2700 NW 183rd Street, Miami Gardens, FL 33056",25.940863,-80.245447
Florida,"Miami, FL - NE 41st Street Supercharger","90 NE 41st Street, Miami, FL 33137",25.813920850000002,-80.19414782046772
Florida,"Miami, FL - SW 7th Street Supercharger","701 South Miami Avenue, Miami, FL 33130-1946",,
Florida,"Miramar, FL","12100 Miramar Parkway, Miramar, FL 33025",25.978499,-80.30670894170801
Florida,"New Port Richey, FL","4026 US-19, New Port Richey, FL 34652",28.217468181818184,-82.73688145454545
Florida,"Ocala, FL Supercharger","4414 SW College Road, Ocala, FL 34474-4790",,
Florida,"Okahumpka, FL Supercharger","299 FL-91, Wildwood, FL 34785",28.7868299,-81.9821989
Florida,"Orlando, FL - 7826 West Sand Lake Road Supercharger","7826 W Sand Lake Rd, Orlando, FL 32819",28.4494002,-81.4895344
Florida,"Orlando, FL - North Alafaya Trail Supercharger","413 North Alafaya Trail, Orlando, FL 32828",,
Florida,"Palm Beach Gardens, FL","4431 PGA Boulevard, Palm Beach Gardens , FL 33410",26.83945225,-80.10439195079397
Florida,"Pembroke Pines, FL","1600 S Hiatus Rd, Pembroke Pines, FL 33025",25.99902261269162,-80.29613636347199
Florida,Pinellas Park Supercharger,"3101 Gandy Blvd., Pinellas Park, FL 33782-6203",,
Florida,"Pompano Beach, FL","3601 North Federal Highway, Pompano Beach, FL 33431",26.21147025,-80.10695365000001
Florida,"Port Saint Lucie, FL - Florida's Turnpike","144 Florida's Turnpike, Port Saint Lucie, FL 34984",27.26887725,-80.35578665
Florida,"Riverview, FL - Highway 301 South Supercharger","9617 US-301, Riverview, FL 33578",27.858401200000003,-82.32752676759362
Florida,"Saint Petersburg, FL Supercharger","3637 34th Street South, Saint Petersburg, FL 33711",27.734859727850594,-82.67937023117089
Florida,"Sarasota, FL - Clark Road Supercharger","5321 Clark Rd, Sarasota, FL 34233",27.2700147,-82.46282119017201
Florida,St. Augustine,"2700 Florida 16, St. Augustine, FL 32092-2095",,
Florida,"Stuart, FL Supercharger","2401 S Kanner Hwy, Stuart, FL 34994",27.1751406,-80.25218272399592
Florida,"Tallahassee, FL","2020 W Pensacola St, , FL 32304",30.4419864,-84.3200096
Florida,"Tampa, FL - West Swann Avenue Supercharger","2100 West Swann Avenue, Tampa, FL 33606",27.9360233,-82.4814286
Florida,Tesla - Tampa - 2223 N Westshore Blvd,"2223 N Westshore Blvd, Tampa, FL 33607",27.9646979,-82.5197323
Florida,The Atlantic Hotel and Spa,"601 N Fort Lauderdale Beach Blvd, Fort Lauderdale, FL 33304",26.13155055,-80.10384777486132
Florida,"Venice, FL Supercharger","370 Commercial Ct, Venice, FL 34292",27.107770350000003,-82.38530122199498
Florida,"West Palm Beach, FL","2300 45th St, , FL 33407",26.758865525252524,-80.08892916161616
Florida,"Winter Garden, FL Supercharger","13501 W Colonial Dr, Winter Garden, FL 34787",28.55185395,-81.58410403258621
Georgia,"Acworth, GA Supercharger","3500 Baker Road, Acworth, GA 30101",34.076315,-84.65313
Georgia,"Athens, GA Supercharger","1791 Oconee Connector, Athens, GA 30606",33.91570745,-83.45291120993087
Georgia,"Atlanta, GA - Peachtree Road Supercharger","3393 Peachtree Road, Atlanta, GA 30326",33.8478805,-84.3618784
Georgia,"Brunswick, GA Supercharger","380 Millennium Blvd, Brunswick, GA 31525",,
Georgia,"Cordele, GA Supercharger","1013 East 16th Street, Cordele, GA 31015",,
Georgia,"Dublin, GA","2172 US-441, Dublin, GA 31021",32.489243412356885,-82.93398364779421
Georgia,"Kennesaw, GA","440 Ernest West Barrett Parkway Northwest, Kennesaw , GA 30144",33.99448424880386,-84.59574867048748
Georgia,"Macon, GA - Tom Hill Senior Boulevard Supercharger","121 Tom Hill Senior Boulevard, Macon, GA 31210",32.90089744897959,-83.6871463877551
Georgia,"McDonough, GA Supercharger","1380 GA-20, McDonough, GA 30253",33.42369178114317,-84.18477394182251
Georgia,"Newnan, GA Supercharger","555 Bullsboro Dr, Newnan, GA 30265",33.39306635,-84.75817653650086
Georgia,"Pooler, GA Supercharger","2111 Pooler Pkwy, Pooler, GA 31322",32.079195600000006,-81.2809277638332
Georgia,Tesla Collision Tucker,"2110 Tucker Industrial Rd, Tucker, GA 30084",33.845054,-84.2033895
Georgia,"Woodstock, GA Supercharger","915 Ridgewalk Pkwy, Woodstock, GA 30188",34.1202616,-84.52623517815235
Hawaii,"Aiea, HI","98-1005 Moanalua Road, Aiea, HI 96701",21.3829829,-157.9398729
Idaho,Boise Supercharger,"1426 South Entertainment Ave., Boise, ID 83709-8306",,
Idaho,Idaho Falls Supercharger,"940 Pier View Drive, Idaho Falls, ID 83402-4918",,
Illinois,"Algonquin, IL Supercharger","400 South Randall Road, Algonquin , IL 60102",42.1702764,-88.33855378936632
Illinois,"Buffalo Grove, IL Supercharger","1550 Deerfield Pkwy, Buffalo Grove, IL 60089",42.16915795,-87.92413686568707
Illinois,"Chicago, IL - Elston Avenue Supercharger","2656 North Elston Avenue, Chicago, IL 60647",41.92877115,-87.68491063560413
Illinois,"Chicago, IL - North Halsted Supercharger","1457 North Halstead Ave, Chicago, IL 60610",,
Illinois,"Collinsville, IL Supercharger","217 N Bluff Rd, Collinsville, IL 62234",38.67362145,-90.01350805
Illinois,"Edwardsville, IL","1041 Century Dr, Edwardsville, IL 62025",38.787747,-89.9814067
Illinois,"Evanston, IL Supercharger","1800 Maple Ave, Evanston, IL 60201",42.050215699999995,-87.68558607158262
Illinois,"Gilman, IL Supercharger","1043 S Crescent St, Gilman, IL 60938",40.75177685,-87.99664605000001
Illinois,"Joliet, IL (SCRAP)","2701 Plainfield Rd, Joliet, IL 60435",41.576984100000004,-88.15355812867429
Illinois,"Mokena, IL","11305 Lincoln Highway, Mokena, IL 60448",41.49943605,-87.89025984443204
Illinois,"Normal, IL (2)*","610 West Raab Rd, Normal, IL 61761",40.53202369387755,-88.99659689795918
Illinois,North Aurora Supercharger,"151 Hansen Blvd, North Aurora, IL 60542-8986",,
Illinois,"Oswego, IL Supercharger","2700 US-34, Oswego, IL 60543",41.70088089443077,-88.31362871069913
Illinois,"Rochelle, IL Supercharger","330 S 7th Street, Rochelle, IL 61068",41.91709723978015,-89.06874981435055
Illinois,"Rolling Meadows, IL Supercharger","1301 Meijer Drive, Rolling Meadows, IL 60008-4205",,
Illinois,"South Barrington, IL Supercharger","100 West Higgins Road, South Barrington , IL 60010",42.0741017,-88.1828309
Illinois,Tesla Collision Burr Ridge,"311 Shore Dr, Burr Ridge, IL 60527",41.7415207421393,-87.93840137877868
Illinois,"Villa Park, IL","50 E N Ave, Villa Park, IL 60181",41.90515276440215,-87.99255677309863
Indiana,"Angola, IN Supercharger","3855 Indiana 127, Angola, IN 46703",,
Indiana,"Carmel, IN Supercharger","1424 W Carmel Dr, Carmel, IN 46032",39.973588750000005,-86.15266821335494
Indiana,"Elkhart, IN - Henry Schricker Travel Plaza Supercharger","28054 2 County Road 4 West, Elkhart, IN 46514",,
Indiana,"Fort Wayne, IN - Illinois Road Supercharger","5909 Illinois Rd, Fort Wayne, IL 46804",,
Indiana,"Howe, IN - Ernie Pyle Travel Plaza - WB Supercharger","126 Mile Post 1-90 West, Howe, IN 46746",,
Indiana,"Indianapolis, IN - Capitol Avenue Supercharger","109 South Capitol Avenue, Indianapolis, IN 46225",39.765413,-86.1613582
Indiana,"Indianapolis, IN Supercharger","5120 Victory Drive, Indianapolis, IN 46203-5947",,
Indiana,"Lafayette, IN Supercharger","4901 State Rd. 26E, Lafayette, IN 47905-4611",,
Indiana,"Mishawaka, IN","5020 Grape Rd, Mishawaka, IN 46545",41.70666265,-86.18557424392102
Indiana,"Portage, IN - John T. McCutcheon Travel Plaza Supercharger","5100 Plaza Ave, Portage Township, IN 46368",,
Indiana,"Rolling Prairie, IN - Wilbur Shaw Travel Plaza Supercharger","7 N Wilbur Shaw Plaza, Rolling Prairie, IN 46371",,
Indiana,"Spiceland, IN","5809 South State Road 3, Spiceland, IN 47385",,
Indiana,"Washington, IN","1 Gateway Dr, Washington, IN 47501",,
Iowa,"Altoona, IA Supercharger","1430 1st Avenue North, Altoona, IA 50009",41.665546166666665,-93.464681
Iowa,Council Bluffs Supercharger,"3815 Metro Drive, Council Bluffs, IA 51501-7753",,
Iowa,Dows Supercharger,"904 Cardinal Lane, Dows, IA 50071-8004",,
Iowa,"Iowa City, IA Supercharger","1103 North Dodge Street, Iowa City, IA 52245",41.67543744955802,-91.52106786570137
Iowa,"Sioux City, IA - Southern Hills Drive Supercharger","4727 Southern Hills Dr, Sioux City, IA 51106",42.44073865,-96.34560885043248
Iowa,"Waterloo, IA Supercharger","1422 Flammang Dr, Waterloo, IA 50702",42.45824375,-92.3276794583937
Kansas,"Colby, KS Supercharger","700 E Horton Ave., Colby, KS 67701-3746",,
Kansas,"Goodland, KS Supercharger","2631 Enterprise Rd, Goodland, KS 67735-9700",,
Kansas,"Mission, KS Supercharger","6655 Martway Street, Mission, KS 66202",39.0190608,-94.66244743181687
Kansas,"Overland Park, KS","9545 Anitoch Rd, Overland Park, KS 66212",,
Kansas,Tesla Collision Lenexa,"15125 W 101st Terrace, Lenexa, KS 66219",38.9441818,-94.7615401
Kansas,Wichita Kansas Supercharger,"4760 S. Broadway Street, Wichita, KS 67216-1738",,
Kentucky,"Beaver Dam, KY Supercharger","675 Western Kentucky Pkwy, Beaver Dam, KY 42320",,
Kentucky,"Florence, KY - Houston Road Supercharger","4990 Houston Road, Florence, KY 41042",39.011428699999996,-84.63835655422852
Kentucky,"Lexington, KY","351 Meijer Way, Lexington , KY 40503",37.9962623,-84.5312562919047
Kentucky,"Louisville, KY - Preston Highway Supercharger","9500 Preston Hwy, Louisville, KY 40229",38.11265435,-85.67970635825726
Kentucky,"Richmond, KY*","1013 Buc-ee's Boulevard, Richmond , KY 40403",,
Los Angeles,"Los Angeles, CA - Alameda Street Supercharger","777 Alameda St, Los Angeles, CA 90021",34.18236982222223,-118.13441042222222
Louisiana,Alexandria Supercharger,"701 4th Street, Alexandria, LA 71301-8431",,
Louisiana,"Covington, LA","69320 LA-21, Covington, LA 70433",30.442264350000002,-90.14005039483266
Louisiana,Lake Charles Supercharger,"1772 W Prien Lake Road, Lake Charles, LA 70601-8361",,
Louisiana,"Natchitoches, LA Supercharger","5423 University Parkway, Natchitoches, LA 71457",31.72518455,-93.16213412189308
Louisiana,Shreveport Supercharger,"1133 St. Vincent Ave., Shreveport, LA 71104-4153",,
Maine,Augusta Comfort Inn Civic Center Self-Serve Demo Drive,"281 Civic Center Dr, Augusta, ME 04330",44.34894665,-69.79491951014582
Maine,"Bar Harbor, ME Supercharger","225 High St, Ellsworth, ME 04605",44.5313038,-68.4092836
Maine,"Falmouth, ME","65 Gray Road, Falmouth , ME 04105",43.73275745,-70.29500924999999
Maine,"Jackman, ME Supercharger","407 Main Street, Jackman, ME 04945",45.6241538,-70.25189661318254
Maine,"Medway, ME Supercharger","1941 Medway Road, Medway, ME 04460",45.609857,-68.52344471924246
Maine,"Skowhegan, ME Supercharger","496 Madison Avenue, Skowhegan, ME 04976",44.7808254,-69.72799125157428
Maine,"Windham, ME","795 Roosevelt Trail, Windham, ME 04062",43.8396584,-70.4409439
Maryland,Aberdeen Supercharger,"I-95, Aberdeen, MD 21001-0000",,
Maryland,"Annapolis, MD Supercharger","1906 Towne Centre Boulevard, Annapolis, MD 21401",38.9810466,-76.5405332
Maryland,"Baltimore, MD - McHenry Row Supercharger","1641 Whetstone Way, Baltimore, MD 21230",39.26817485,-76.60019538417554
Maryland,"Beltsville, MD Supercharger","10515 Baltimore Avenue, Beltsville, MD 20705",39.027493750000005,-76.91738677866527
Maryland,"Brandywine, MD","16410 McKendree Rd, Brandywine, MD 20613",38.664294600000005,-76.87581505
Maryland,"District Heights, MD","2130 Brooks Dr, District Heights , MD 20747",,
Maryland,"Elkridge, MD","7136 Montevideo Rd, Elkridge, MD 21075",,
Maryland,"Gaithersburg, MD Supercharger","9811 Washingtonian Blvd., Gaithersburg, MD 20878-7306",,
Maryland,"Hagerstown, MD Supercharger","495 Premium Outlets Blvd, Hagerstown, MD 21740-9559",,
Maryland,Laurel Supercharger,"14700 Baltimore Ave, Laurel, MD 20707-4877",,
Maryland,"National Harbor, MD - Potomac Passage Supercharger","150 Potomac Passage, Oxon Hill, MD 20745",38.784906946737124,-77.01515874736835
Maryland,"North East, MD Supercharger","John F Kennedy Memorial Hwy, North East, MD 21901-0000",,
Maryland,"Owings Mills, MD","Grand Central Ave, Owings Mills, MD 21117",39.40597342500259,-76.7802113847451
Maryland,"Rosedale, MD","7501 Pulaski Hwy, Baltimore, MD 21237",39.3117356,-76.5251966
Maryland,Tesla - Grasonville - 101 Hissey Rd,"101 Hissey Rd, Grasonville, MD 21638",38.96584785,-76.19359035490274
Maryland,"Urbana, MD Supercharger","9180 Fingerboard Road, Urbana, MD 21704",39.32763115,-77.34655497852737
Maryland,"White Plains, MD Supercharger","4210 Crain Highway, White Plains , MD 20695",38.595188199999996,-76.9370807
Massachusetts,"Amesbury, MA","301 Newbury St, Danvers, MA 01923",42.5849845,-70.96403648840442
Massachusetts,"Boston, MA - Allstate Road Supercharger","101 Allstate Road, Boston, MA 02125-1663",,
Massachusetts,"Burlington, MA Supercharger","75 Middlesex Turnpike, Burlington, MA 01803",42.48254195,-71.21352621256094
Massachusetts,"Chicopee, MA Supercharger","650 Memorial Dr, Chicopee, MA 01020",42.176506700000004,-72.580079543385
Massachusetts,"East Templeton, MA Supercharger","163 Patriots Rd, Templeton, MA 01468",42.57361281599093,-72.10870994330293
Massachusetts,"Gloucester, MA","Gloucester Crossing Rd, Gloucester, MA 01930",42.6238807,-70.6581821
Massachusetts,"Hanover, MA Supercharger","1775 Washington Street, Hanover, MA 02359",42.14779365,-70.84216343886064
Massachusetts,"Hyannis, MA Supercharger","425 Attucks Lane, Hyannis, MA 02601",41.675824899999995,-70.30709354970004
Massachusetts,"Leominster, MA Supercharger","100 Commercial Road, Leominster, MA 01453-3333",,
Massachusetts,"Mansfield, MA Supercharger","280 School Street, Mansfield, MA 02048",42.0136963,-71.2300252
Massachusetts,"Orleans, MA Supercharger","2110 Cranberry Highway, Orleans, MA 02653",41.7967095,-69.9857923
Massachusetts,"Sagamore Beach, MA Supercharger","22 Meetinghouse Lane, Sagamore Beach, MA 02562-2457",,
Massachusetts,"Stoughton, MA Supercharger","1 Hawes Way, Stoughton, MA 02072",42.15214085,-71.07279987380481
Massachusetts,"Wareham, MA Supercharger","2421 Cranberry HIghway, Wareham, MA 02571",41.77253745,-70.7438206388266
Michigan,Ann Arbor Supercharger,"3145 Ann Arbor-Saline Road, Ann Arbor, MI 48103-9711",,
Michigan,Bay City Supercharger,"2980 E Wilder Rd, Bay City, MI 48706-9213",,
Michigan,Cadillac Supercharger,"8605 E. 34 Road, Cadillac, MI 49601-8280",,
Michigan,"Escanaba, MI Supercharger","505 North 26th Street, Escanaba, MI 49783",45.7501553,-87.0850365
Michigan,"Holland, MI Supercharger","746 E 16th St, Holland, MI 49423",42.78095885,-86.07543415278253
Michigan,Lansing Supercharger,"2025 Showtime Drive, Lansing, MI 48912",42.767122680981146,-84.51555029787946
Michigan,Ludington Supercharger,"3900 W US Hwy 10, Ludington, MI 49431-7612",,
Michigan,Marshall Supercharger,"15252 US Highway 27 N, Marshall, MI 49068-9620",,
Michigan,Port Huron Supercharger,"500 Thomas Edison Parkway, Port Huron, MI 48060",42.998807,-82.425777
Michigan,"Sault Ste. Marie, MI Supercharger","1138 3 Mile Road, Sault Ste. Marie, MI 49783",46.46300955369875,-84.34016747727205
Michigan,"Swartz Creek, MI Supercharger","4141 Morrish Road, Swartz Creek, MI 48473",42.96828405,-83.82686665786083
Michigan,"Ypsilanti, MI","3825 Carpenter Rd, Ypsilanti, MI 48197",42.233522199999996,-83.6764560436406
Minnesota,"Albert Lea, MN - Happy Trails Lane Superchargers","820 Happy Trails Lane, Albert Lea, MN 56007",,
Minnesota,"Bemidji, MN Supercharger","2000 Paul Bunyan Dr NW, Bemidji, MN 56601",47.492596750000004,-94.90831315604657
Minnesota,"Carlton, MN Supercharger","1785 MN-210, Carlton, MN 55718",46.6658247,-92.47807272887306
Minnesota,"Eagan, MN","1940 Cliff Lake Road, Eagan, MN 55122",44.79515465,-93.20355188588091
Minnesota,"Minneapolis, MN Supercharger","1650 New Brighton Boulevard, Minneapolis, MN 55413",45.0047945,-93.229945
Minnesota,"North Branch, MN","38682 Main St, North Branch, MN 55056",45.51144806199226,-92.979402635669
Minnesota,"Robbinsdale, MN Supercharger","3501 West Broadway Avenue, Robbinsdale, MN 55422",45.019357596667014,-93.32568529520047
Minnesota,"Sherburn, MN Supercharger","600 MN-4, Sherburn, MN 56171-0000",,
Minnesota,Tesla Lake Elmo,"9800 Hudson Blvd N, Lake Elmo, MN 55042",44.949279,-92.908329
Minnesota,"Worthington, MN Supercharger","1290 Ryans Road, Worthington, MN 56187-1722",,
Mississippi,"D'Iberville, MS Supercharger","3586 Sangani Blvd, D'Iberville, MS 39540",30.4593038,-88.8939646817735
Mississippi,"McComb, MS","1432 Delaware Ave., McComb, MS 39648",31.24762477177455,-90.47034216321364
Mississippi,"Southaven, MS","150 Goodman Road W, Southaven, MS 38671",34.9632072,-89.9920345
Missouri,"Bethany, MO Supercharger","3807 Miller Street, Bethany, MO 66424",40.265255,-94.01475204081632
Missouri,"Chesterfield, MO","17057 North Outer 40 Road, Chesterfield, MO 63005",,
Missouri,"Concordia, MO Supercharger","101 N Main Street, Concordia, MO 64020",38.98975075,-93.56754520101313
Missouri,"Independence, MO","18011 E Bass Pro Dr, Independence, MO 64055",,
Missouri,"Liberty, MO Supercharger","109 North Blue Jay Drive, Liberty, MO 64068",39.24581035,-94.44701406379347
Missouri,"Nevada, MO Supercharger","500 E Austin Blvd, Nevada, MO 64772",37.836904,-94.351504
Missouri,"Saint Louis, MO Supercharger","4565 McRee Avenue, St. Louis , MO 63110",38.6209894,-90.25997436469564
Missouri,"St. Charles, MO - Beale Street Supercharger","1650 Beale Street, St. Charles, MO 63303",38.7658456,-90.4936957
Montana,"Belgrade, MT","561 BUSINESS HUB Drive, Belgrade , MT 59714",,
Montana,"Billings, MT - Town Pump","2711 N Frontage Rd, Billings, MT 59101",45.8164709,-108.4164554
Montana,Butte Supercharger,"2900 Harrison Ave., Butte, MT 59701-3663",45.982178149999996,-112.50704146482776
Montana,"Great Falls, MT Supercharger","2301 14th St SW, Great Falls, MT 59404",47.483584199999996,-111.33774093675223
Montana,"Miles City, MT Supercharger","1815 S Haynes Ave, Miles City, MT 59301",46.40184128272005,-105.82264063027323
Montana,"Saint Regis, MT","60 Mullan Gulch Road, St. Regis, MT 59866",47.30317315627903,-115.108180189193
Nebraska,Gothenburg Supercharger,"318 Platte River Road, Gothenburg, NE 69138-2610",,
Nebraska,"Lincoln, NE","610 W O St, Lincoln, NE 68528",40.814138400000004,-96.7283201022286
Nebraska,Ogallala Supercharger,"501 Stagecoach Trail, Ogallala, NE 69153-3118",,
Nebraska,Sidney Supercharger,"645 Cabela Drive, Sidney, NE 69162-3047",41.11508875,-102.9505581
Nevada,7400 S Las Vegas Blvd (Premium Outlets South),"7400 Las Vegas Boulevard South, Las Vegas , NV 89123",36.0525604,-115.1687028
Nevada,"Ely, NV","1689 Great Basin Blvd, Ely , NV 89301",39.25317457042234,-114.87413269331373
Nevada,Grand Sierra Resort and Casino,"2500 E 2nd St, Reno, NV 89502",39.52344735,-119.77886409519215
Nevada,"Henderson, NV - Paseo Verde Pkwy","2300 Paseo Verde Pkwy, Henderson , NV 89052",36.0211151,-115.0909382
Nevada,"Incline Village, NV Supercharger","930 Tahoe Boulevard, Incline Village, NV 89451",39.250484549999996,-119.94874344207332
Nevada,"Las Vegas, NV - Grand Central Parkway Supercharger","875 South Grand Central Parkway, Las Vegas, NV 89106",36.1636903,-115.15832052176043
Nevada,"Las Vegas, NV - Tivoli Village Supercharger","400 South Rampart Boulevard, Las Vegas, NV 89145",36.16797964297581,-115.28710803756285
Nevada,"Laughlin, NV","2700 S Casino Dr, Laughlin, NV 89029",35.15262,-114.574682
Nevada,"Mesquite, NV - Mesa Boulevard","275 Mesa Blvd, Mesquite, NV 89027",36.8170657,-114.06401823865076
Nevada,"Primm, NV Supercharger","31900 Las Vegas Blvd S, Primm, NV 89019",35.6149201,-115.384244
Nevada,"Reno, NV - North Sierra Street Supercharger","375 N Sierra Street, Reno, NV 89503",39.52931234023749,-119.81554238739052
Nevada,Tesla Collision Reno,"1195 Corporate Blvd, Reno, NV 89502",39.510994,-119.75085300655189
Nevada,West Wendover Supercharger,"810 W Wendover Blvd., West Wendover, NV 89883",40.73737423543536,-114.05681481580022
New Hampshire,"Ashland, NH Supercharger","158 Main Street, Ashland, NH 03217",43.6983341,-71.64031098381844
New Hampshire,Hooksett (Northbound) Supercharger,"Hooksett Travel Plaza Northbound I-93, Hooksett, NH 03106-1321",,
New Hampshire,"Manchester, NH - Willow St","1071 S Willow St, Manchester, NH 03103",42.9609905,-71.4391651
New Hampshire,"Rochester, NH Supercharger","290 North Main Street, Rochester, NH 03867",43.3097216,-70.99427870625941
New Hampshire,"Tilton, NH Supercharger","65 Laconia Rd, Tilton, NH 03276",43.4549886,-71.5650425
New Jersey,"Avenel, NJ Supercharger","930 US-1, Avenel, NJ 07001",40.5808096875,-74.28421718749999
New Jersey,"Boonton, NJ Supercharger","550 Myrtle Avenue, Boonton, NJ 07005",40.9085484,-74.3970403
New Jersey,"Cape May Court House, NJ Supercharger","11 Court House South Dennis Road, Cape May Court House, NJ 08210",39.0892394,-74.8219937
New Jersey,"Clarksburg, NJ Supercharger","548 Monmouth Rd, Clarksburg, NJ 08510",,
New Jersey,"Cranford, NJ Supercharger","370 N Ave E, Cranford, NJ 07016",40.657969571428566,-74.2901975
New Jersey,"East Brunswick, NJ - State Route 18 Supercharger","755 State Route 18, East Brunswick, NJ 08816",40.423331000000005,-74.38224411958745
New Jersey,"Edison, NJ Supercharger","55 Parsonage Rd., Edison, NJ 08837-2480",,
New Jersey,"Elwood, NJ Supercharger","Milepost 21.3 on the Atlantic City Expressway, Elwood, NJ 08217",,
New Jersey,"Hackensack, NJ","390 Hackensack Ave, Hackensack, NJ 07601",40.90675825641026,-74.03309412820512
New Jersey,"Hamilton, NJ-Woodrow Wilson Supercharger","New Jersey Turnpike, Post 58.7 South, Hamilton Township, NJ 08620",,
New Jersey,"Jersey City, NJ – 1st Street Supercharger","160 1st St, Jersey City, NJ 07302",40.7215335945946,-74.04016243243242
New Jersey,"Lodi, NJ Supercharger","150 Essex St, Lodi, NJ 07644",40.8915643,-74.073001541781
New Jersey,"Manahawkin, NJ (Wall Connector)","209 Stafford Park Blvd, Stafford Township, NJ 8050",39.710381999999996,-74.28397713203205
New Jersey,"Marlton, NJ Supercharger","500 NJ-73, Marlton, NJ 08053",39.87901455,-74.9210923076727
New Jersey,"Mount Laurel, NJ - James Fenimore Supercharger","1400 NJ Tpke, Mount Laurel Township, NJ 08054",,
New Jersey,"North Brunswick, NJ Supercharger","191 Grand Avenue, North Brunswick, NJ 08902",40.44310147531697,-74.50041088241915
New Jersey,"Paulsboro, NJ Supercharger","51 Berkley Road, Paulsboro, NJ 08066",39.823186866466074,-75.24605276054895
New Jersey,"Penns Grove, NJ","327 Slapes Corner Rd, Carneys Point, NJ 08069",,
New Jersey,"Robbinsville, NJ Supercharger","315 Robbinsville-Allentown Road, Robbinsville, NJ 08691",40.19407665,-74.59507020000001
New Jersey,"South Toms River, NJ Supercharger","379 Dover Road, Toms River, NJ 08757",39.9403268490566,-74.21515705660377
New Jersey,Tesla Collision Cherry Hill,"2040 SPRINGDALE RD, Cherry Hill, NJ 08003",39.9120628,-74.9656516
New Jersey,"Trenton, NJ - Richard Stockton Supercharger","75 NJ Turnpike, Hamilton Township, NJ 08620",,
New Jersey,"Westampton, NJ - Rancocas Road Supercharger","570 Rancocas Rd, Westampton, NJ 08060",40.007110499999996,-74.86095025693943
New Mexico,Albuquerque,"1300 Jemez Canyon Dam Rd, Bernalillo, NM 87004",,
New Mexico,"Clayton, NM Supercharger","315 S 1st St, Clayton, NM 88415",36.449554285714285,-103.18284671428572
New Mexico,"Gallup, NM Supercharger","111 Twin Buttes Rd, Gallup, NM 87301-5631",,
New Mexico,"Las Vegas, NM Supercharger","2500 N. Grand Ave., Las Vegas, NM 87701",35.62171075,-105.20435954516174
New Mexico,"Soccoro, NM","1100 N California St, Socorro , NM 87801",,
New York,"Albany, NY Supercharger","131 Colonie Center, Albany, NY 12205-2751",,
New York,"Brewster, NY","1 Starr Ridge Rd, Brewster, NY 10509",41.3923755,-73.5954934
New York,"Brooklyn, NY - Brooklyn Museum Supercharger","878 Washington Avenue, Brooklyn, NY 11225",40.66810765517241,-73.96177931034484
New York,"Carle Place, NY Supercharger","117 Old Country Rd, Carle Place, NY 11514",40.7440086,-73.6196039
New York,"Chestertown, NY Supercharger","6151 NY-8, Chestertown, NY 12817",43.665300200000004,-73.78471005853055
New York,"Dansville, NY","35 Franklin Plaza, Dansville, NY 14437",,
New York,Erwin Supercharger,"125 Victory Hwy, Painted Post, NY 14870",42.170892699999996,-77.10774675
New York,"Garden City, NY Supercharger","630 Old Country Road, Garden City, NY 11530",40.7372818,-73.6133799
New York,"Hancock, NY","661 West Main Street, Hancock , NY 13783",41.9563353,-75.29458000755629
New York,"Islandia, NY Supercharger","1750 Veterans Hwy, Islandia, NY 11598",40.8038132,-73.178546
New York,Kingston Supercharger,"640 Washington Ave., Kingston, NY 12401-2945",,
New York,"Lake Placid, NY Supercharger","1930 Saranac Ave, Lake Placid, NY 12946",44.2941677,-74.01098339603158
New York,"Manorville, NY Supercharger","485 County Rd 111, Manorville, NY 11949",,
New York,"Melville, NY Supercharger","890 Walt Whitman Rd, Melville, NY 11747",40.7981975,-73.4106806
New York,"New Paltz, NY Supercharger","271 Main Street Plaza Diner, New Paltz, NY 12561",,
New York,"New York, NY - 59 Allen Street Supercharger","59 Allen Street, New York, NY 10002",40.7534732,-73.67270568311687
New York,"New York, NY - West 75th Street Supercharger","201 W 75th Street, New York, NY 10023-1704",,
New York,OneidaDelivery,"5218 Patrick Rd, Verona, NY 13478",43.1150547,-75.58878671859568
New York,"Parish, NY","3039 County Rte 26, Parish, NY 13131",,
New York,"Potsdam, NY","26 Maple Street, Potsdam, NY 13676",44.66719002822702,-74.99058495884843
New York,"Red Hook, NY Supercharger","35 Hannaford Dr, Red Hook, NY 12571",41.9801704,-73.88140876568477
New York,"Roslyn Heights, NY - Willis Avenue Supercharger","373 Willis Ave, Roslyn Heights, NY 11577",40.7801784,-73.6503682
New York,"Shirley, NY Supercharger","999 Montauk Hwy, Shirley, NY 11967",40.8032341,-72.861367
New York,"Syosset, NY - Jericho Turnpike Supercharger","271 Jericho Turnpike, Syosset, NY 11791",40.81152575,-73.50544851303975
New York,Tarrytown Supercharger,"600 White Plains Road, Tarrytown, NY 10591-5104",,
New York,"Valley Stream, NY Supercharger","2034 Green Acres Mall, Sunrise Highway, Valley Stream, NY 11581",,
New York,"Waterloo, NY Supercharger","1133 Route 414, Waterloo, NY 13165",,
New York,"Yonkers, NY","1969 Central Park Ave, Yonkers, NY 10710",40.96394627394856,-73.8394377682984
North Carolina,"Archdale, NC Supercharger","10206 S Main St, Archdale, NC 27263",35.8988968,-79.9467558
North Carolina,"Asheville, NC - Thetford Street Supercharger","264 Thetford Street, Asheville , NC 28803",35.4843128,-82.5576145
North Carolina,"Burlington, NC Supercharger","1080 Piper Ln, Burlington, NC 27215-8239",,
North Carolina,"Chapel Hill, NC Supercharger","100 Village Center Dr, Chapel Hill, NC 27516",35.9698343,-79.06361731623362
North Carolina,"Charlotte, NC - Northlake Centre Parkway Supercharger","9841 Northlake Centre Pkwy, Charlotte, NC 28216",35.34853316957191,-80.85751138599642
North Carolina,"Durham, NC Supercharger","3219 Watkins Rd, Durham, NC 27707",35.9530154,-78.9918774
North Carolina,"Gastonia, NC","3050 East Franklin Boulevard, Gastonia , NC 28056",35.260018,-81.122254
North Carolina,"Greenville, NC Supercharger","701 Moye Boulevard, Greenville, NC 27834",35.605357850000004,-77.39998170876802
North Carolina,"Hickory, NC Supercharger","2191 13th Avenue Drive SE, Hickory, NC 28602-5185",,
North Carolina,"Kill Devil Hills, NC Supercharger","2012 S Croatan Hwy, Kill Devil Hills, NC 27948",35.99251700000001,-75.65169177531914
North Carolina,"Lexington, NC","19 Plaza Parkway, Lexington, NC 27292",35.7845194,-80.2574289
North Carolina,"Matthews, NC",", Matthews, NC 28105",35.1159532,-80.7224386
North Carolina,"Mocksville, NC","1449 Yadkinville Rd, Mocksville, NC 27028",35.918792350000004,-80.58547225258422
North Carolina,"Mt Airy, NC","110 Graceland Ln, Mt Airy, NC 27030",36.4851717,-80.7449238283726
North Carolina,"Old Fort, NC Supercharger","121 Parker Padgett Road, Old Fort, NC 28762",35.6379166,-82.1432211
North Carolina,"Raleigh, NC Supercharger","Lassiter at North Hills Ave, Raleigh, NC 27609-5780",,
North Carolina,"Salisbury, NC","730 Jake Alexander Boulevard South, Salisbury , NC 28147",35.65135416884876,-80.49850336285469
North Carolina,"Smithfield, NC Supercharger","1700 E Market St E Market St, Smithfield, NC 27577",,
North Carolina,"Wallace, NC Supercharger","111 River Village Place, Wallace, NC 28466",34.7569,-77.9481
North Carolina,"Wilson, NC","4934 Raleigh Road Parkway West, Wilson, NC 27896",35.762882,-77.999433
North Dakota,"Bismarck, ND Supercharger","999 West Century Avenue, Bismarck, ND 58503",46.833946,-100.808501
North Dakota,"Grand Forks, ND Supercharger","3601 32nd Avenue South, Grand Forks, ND 58201",47.886534850000004,-97.0800962518251
Ohio,"Ashland, OH - Enterprise Parkway","1392 Enterprise Parkway, Ashland , OH 44805",40.859385,-82.26875059669773
Ohio,"Brooklyn, OH Supercharger","10315 Cascade Crossing, Brooklyn, OH 44144",41.42256825,-81.75877553916249
Ohio,"Cincinnati, OH Supercharger","4825 Marburg Avenue, Cincinnati, OH 45209",39.1618243,-84.4252914
Ohio,"Dayton, OH","5858 N Springboro Pike, Dayton , OH 45449",39.64015438279932,-84.22499135612608
Ohio,"Findlay, OH Supercharger","1051 Interstate Ct, Findlay, OH 45840",41.0592728,-83.67077894188824
Ohio,"Girard, OH Supercharger","420 South State Street, Girard, OH 44420",41.149719795918365,-80.69965430612245
Ohio,"Macedonia, OH Supercharger","8210 Macedonia Commons Blvd., Macedonia, OH 44056-1860",,
Ohio,Mt. Gilead Supercharger,"6200 State Route 95, Mt. Gilead, OH 43338-9548",,
Ohio,"New Springfield, OH","12500 Beard Rd, New Springfield , OH 44443",40.935912,-80.595753
Ohio,"Rossford, OH","10055 Olde, Rossford, OH 43460",,
Ohio,"Shaker Heights, OH","20030 Van Aken Blvd, Shaker Heights, OH 44122",41.46661799687585,-81.53851419915163
Ohio,Tesla Collision Cincinnati,"1194 W Kemper Rd, Cincinnati, OH 45240",,
Ohio,"Upper Sandusky, OH","1745 E Wyandot Ave, Upper Sandusky, OH 43351",40.8351709,-83.2370837745199
Ohio,"West Unity, OH","21747 Co Rd M, West Unity , OH 43570",,
Oklahoma,"Ardmore, OK Supercharger","322 Holiday Drive, Ardmore, OK 73401-2575",,
Oklahoma,Perry Supercharger,"2812 Fir Street, Perry, OK 73077-7913",,
Oregon,"Ashland, OR","580 Clover Lane, Ashland , OR 97504",42.182714250000004,-122.66269405
Oregon,"Beaverton, OR","3205 SW Cedar Hills Blvd, Beaverton, OR 97005",45.49670465,-122.8111014
Oregon,"Detroit, OR Supercharger","210 D Street, Detroit, OR 97342-0018",,
Oregon,"Hillsboro, OR Supercharger","181010 NW Evergreen Pkwy, Beaverton, OR 97006",,
Oregon,Klamath Falls Supercharger,"2655 Shasta Way, Klamath Falls, OR 97603-4455",,
Oregon,"Medford, OR Supercharger","2000 Crater Lake Hwy, Medford, OR 97504",42.3479982,-122.87872350532399
Oregon,Pendleton Supercharger,"46510 Wildhorse Blvd., Pendleton, OR 97801-6043",,
Oregon,"Redmond, OR","1565 SW Odem Medo Rd, Redmond, OR 97756",,
Oregon,Sandy Supercharger,"16625 SE 362nd Dr., Sandy, OR 97055-9247",,
Oregon,"Springfield, OR Supercharger","919 Kruse Way, Springfield, OR 97477-1074",,
Oregon,Tesla - Newport - 2220 N Coast Hwy,"2220 N Coast Hwy, Newport , OR 97365",44.6523392,-124.0519781
Oregon,"Tigard, OR Supercharger","9585 Southwest Washington Square Road, Portland, OR 97223",,
Oregon,Woodburn Supercharger,"255 N Arney Rd, Woodburn, OR 97071-8460",,
Pennsylvania,Allentown Supercharger,"4680 Broadway, Allentown, PA 18104-3214",,
Pennsylvania,"Bellefonte, PA Supercharger","170 Buckaroo Ln, Bellefonte, PA 16823-9119",,
Pennsylvania,Breezewood Supercharger,"135 N Breezewood Rd, Breezewood, PA 15533",40.000491384718174,-78.23747935671365
Pennsylvania,"Claysburg, PA","12604 Dunnings Hwy, Claysburg, PA 16625",40.2734461,-78.45949200703164
Pennsylvania,"Doylestown, PA Supercharger","425 S Main St, Doylestown, PA 18901",40.300214600000004,-75.12744208095063
Pennsylvania,"Elverson, PA Supercharger","5 Marsh Road, Elverson, PA 19520",,
Pennsylvania,"Erie, PA - Perry Highway Supercharger","8180 Perry Hwy, Erie, PA 16509",42.0654083,-80.0369253
Pennsylvania,"Franklin Park, PA Supercharger","2615 Nicholson Road & Wexford Bayne Road, Franklin Park, PA 15143-8504",,
Pennsylvania,"Grove City, PA Supercharger","1931 Butler Pike, Grove City, PA 16127",41.14424339999999,-80.15682722394438
Pennsylvania,Hermitage Supercharger,"2381 S. HERMITAGE ROAD, Hermitage, PA 16148",41.20164463292684,-80.45636514110285
Pennsylvania,"King of Prussia, PA - South Henderson Road Supercharger","314 S Henderson Rd, King of Prussia, PA 19406",40.09133145,-75.35867372152572
Pennsylvania,"Malvern, PA","5 Matthews Rd, Malvern, PA 19355",40.05021575,-75.52446815
Pennsylvania,"Mechanicsburg, PA","1415 S Market St, Mechanicsburg, PA 17055",40.1940994,-76.99210457123365
Pennsylvania,Moosic Supercharger,"1035 Shoppes Blvd., Moosic, PA 18507-2140",,
Pennsylvania,"Philadelphia, PA - Center City Supercharger","34 South 11th Street, Philadelphia, PA 19107",39.9509231,-75.1586671
Pennsylvania,"Philadelphia, PA - Penrose Avenue Supercharger","2600 Penrose Ave, Philadelphia, PA 19145",39.905379499999995,-75.1951095
Pennsylvania,"Pottstown, PA","351 W Schuylkill Rd, Pottstown, PA 19465",40.2338404,-75.6671036
Pennsylvania,"Somerset, PA - North Service Plaza Supercharger","179 North Plaza Access Road, Somerset, PA 15501",39.99914106228096,-79.04261980479919
Pennsylvania,"State College, PA Supercharger","223 Colonnade Blvd, State College, PA 16803",40.8156105,-77.9017616
Pennsylvania,"Washington, PA Supercharger","331 Washington Rd, Washington, PA 15301",40.1864251,-80.2289463
Pennsylvania,"York, PA Supercharger","160 Leader Heights Road, York, PA 17403",39.910033,-76.70156241988047
Rhode Island,"East Greenwich, RI Supercharger","1000 Division Street, East Greenwich, RI 02818-1626",,
Rhode Island,"Richmond, RI Supercharger","1175 Stilson Rd, Richmond , RI 02898",41.51605886261346,-71.68457122029268
South Carolina,"Cayce, SC","3040 Charleston Hwy, Cayce, SC 29172",33.9284789600286,-81.07699913662785
South Carolina,"Columbia, SC Supercharger","8910 Farrow Road, Columbia, SC 29203-9729",,
South Carolina,"Florence, SC Supercharger","2701 David H McLeod Blvd, Florence, SC 29501-4043",,
South Carolina,"Greenville, SC - Haywood Rd","605 Haywood Rd, Greenville, SC 29607",34.847154352653945,-82.33988912142463
South Carolina,Myrtle Beach Supercharger,"2000 Coastal Grand Circle, Myrtle Beach, SC 29577-9798",,
South Carolina,"Orangeburg, SC Supercharger","3615 Saint Matthews Road, Orangeburg , SC 29118",33.510567820990126,-80.86130970803715
South Carolina,"Santee, SC Supercharger","114 Bradford Blvd, Santee, SC 29142-8931",,
South Carolina,"Summerton, SC Supercharger","500 Buff Boulevard, Summerton, SC 29148",33.5869392,-80.3575527
South Dakota,"Custer, SD Supercharger","800 Mount Rushmore Road, Custer, SD 57730-2033",,
South Dakota,"Oacoma, SD Supercharger","1000 E Dakota Highway 16, Oacoma, SD 57365-0000",,
South Dakota,"Sisseton, SD","2410 S Dakota Hwy 10, Sisseton, SD 57262",,
South Dakota,"Watertown, SD Supercharger","13230 9th Ave SE, Watertown, SD 57201",44.88992062628802,-97.05714036375937
Tennessee,"Brentwood, TN - Old Hickory Boulevard Supercharger","780 Old Hickory Blvd, Brentwood, TN 37027",36.0431725,-86.77854980422114
Tennessee,"Chattanooga, TN Supercharger","1001 Airport Road, Chattanooga, TN 37421-2271",,
Tennessee,"Dickson, TN Supercharger","100 Barzani Blvd, Dickson, TN 37055-0000",,
Tennessee,"Kimball, TN Supercharger","300 Kimball Crossing Dr, Kimball, TN 37347",35.042052,-85.685238
Tennessee,"Manchester, TN Supercharger","2224 Hillsboro Blvd., Manchester, TN 37355",35.4589382,-86.0570296
Tennessee,"Monteagle, TN","754 W Main St, Monteagle, TN 37356",35.237525,-85.8502206
Tennessee,"Nashville, TN - Charlotte Pike Supercharger","6814 Charlotte Pike, Nashville, TN 37209",36.13501365,-86.89211697837052
Texas,"Abbott, TX Supercharger","1197 I-35, Abbott, TX 76621",31.89098334751472,-97.08654177852881
Texas,"Amarillo, TX - East Interstate 40 Supercharger","8507 East Interstate 40, Amarillo , TX 79118",,
Texas,Austin Ridgepoint,"2323 RIDGEPOINT DR, AUSTIN, TX 78754",30.3285815,-97.67499444833541
Texas,"Austin, TX - FM 969 Supercharger","12200 FM 969, Austin, TX 78724",30.25511185,-97.6054687087534
Texas,"Austin, TX - Research Boulevard Supercharger","9607 Research Boulevard, Austin, TX 78759",30.388547,-97.743193
Texas,"Baytown, TX Supercharger","4080 East Freeway, Baytown , TX 77521",29.8002618,-94.99949180461664
Texas,Buc-ee's Bastrop,"1700 TX-71, Bastrop, TX 78602",30.1069995,-97.30584543303866
Texas,Channelview Supercharger,"16311 East Fwy., Channelview, TX 77530-4319",,
Texas,"College Station, TX","1900 Texas Ave S, College Station, TX 77840",30.614881699999998,-96.3188451
Texas,Corsicana Supercharger,"2035 Interstate 45 Frontage Road, Corsicana, TX 75110-9112",,
Texas,"Dallas, TX - Park Lane Supercharger","8080 Park Ln, Dallas, TX 75231",32.8709812,-96.7678092
Texas,Denton Supercharger,"2700 West University Drive, Denton, TX 76201-1610",,
Texas,El Paso Supercharger,"6401 South Desert Boulevard, El Paso, TX 79932-8515",,
Texas,"Fort Worth, TX - Whitmore Street Supercharger","2616 Whitmore Street, Fort Worth, TX 76107",32.75778215,-97.35365655774189
Texas,"Grapevine, TX - E Northwest Hwy","477 E Northwest Hwy, Grapevine, TX 76051",32.94111657142857,-97.07378769387755
Texas,"Harlingen, TX Supercharger","6710 West Expy 83, Harlingen , TX 78552",26.18833065,-97.75618340061126
Texas,"Houston, TX - Northwest","10850 Louetta Road, Houston, TX 77070",29.996632617231903,-95.57922140023348
Texas,"Houston, TX - Westheimer Road Supercharger","5085 Westheimer Road, Houston, TX 77056",29.7395856,-95.4654905
Texas,"Johnson City, TX - US-281 Supercharger","405 US-281, Johnson City , TX 78636",30.28303615,-98.406890895471
Texas,"Katy, TX Supercharger","25675 Nelson Way, Katy, TX 77494",29.773356999999997,-95.82242971072998
Texas,"Laredo, TX Supercharger","110 Calle Del Norte Drive, Laredo, TX 78041-9143",,
Texas,"Llano, TX Supercharger","117 East Main Street, Llano, TX 78643",30.750399282603546,-98.67562991360977
Texas,"Luling, TX","10070 I-10 West, Luling, TX 78648",,
Texas,"McKinney, TX - TX-121","3530 W University Dr, McKinney, TX 75071",33.2179867,-96.6573731
Texas,Midland Supercharger,"3001 Antelope Trail, Midland, TX 79706-3525",,
Texas,"New Caney, TX - Valley Ranch Town Center",", , TX 77396",29.948171619561816,-95.27525930938967
Texas,"Pecos, TX Supercharger","100 East Pinehurst Street, Pecos, TX 79772",,
Texas,"Plano, TX Supercharger","7161 Bishop Road, Plano, TX 75024",33.0754652,-96.8217268
Texas,"Richmond, TX Supercharger","20500 Southwest Freeway, Richmond, TX 77469",29.561339150000002,-95.69565886061511
Texas,"San Antonio, TX - North Loop 1604 East","123 North Loop 1604 East, San Antonio , TX 78232",29.60827951780967,-98.49159783060432
Texas,"Schertz, TX Supercharger","17460 IH 35 N, Schertz, TX 78154",29.59706025,-98.27750021584552
Texas,"Shenandoah, TX - I-45","19073 I-45, Shenandoah, TX 77385",30.1888923,-95.45119425042436
Texas,Sulphur Springs Supercharger,"300 W Tomlinson Street, Sulphur Springs, TX 75482-2717",,
Texas,"Terrell, TX","506 I-20, Terrell, TX 75160",32.71291755563054,-96.30108021936792
Texas,Tesla Collision Plano,"7040 W Plano Pkwy, Plano, TX 75093",33.0165436,-96.82585755
Texas,Three Rivers Supercharger,"2645 S. Hwy 37, Three Rivers, TX 78071",,
Texas,Victoria Supercharger,"3107 S Laurent St., Victoria, TX 77901-1454",,
Texas,"West Lake Hills, TX (Wall Connector)","701 South Capital of Texas Highway, West Lake Hills, TX 78746",30.291873950000003,-97.82742504047619
Utah,"Beaver, UT - 525 W Supercharger","1780 Littlefield Interchange, Beaver, UT 84713",,
Utah,"Cedar City, UT Supercharger","5249 W 3650 S, Cedar City, UT 84720",,
Utah,"Moab, UT","890 N Main St, Moab, UT 84532",38.5869955,-109.55768470830452
Utah,"Park City, UT","3126 Quarry Rd, Park City, UT 84098",40.690861611689215,-111.498040335054
Utah,"Richfield, UT Supercharger","20 W 1400 N, Richfield, UT 84701-3019",,
Utah,"Salt Lake City, UT - South 300 West Supercharger","1038 S 300 W, Salt Lake City, UT 84101",,
Utah,Tesla - Nephi - 2087 S Main St,"2120 S Main St, Nephi, UT 84648",39.700618201213075,-111.83614691923157
Utah,Tooele Supercharger,"1568 East Saddleback Blvd., Tooele, UT 84074-7600",,
Vermont,"Berlin, VT Supercharger","213 Payne Turnpike, Berlin, VT 05602-9159",,
Vermont,South Burlington Supercharger,"222 Dorset Street, South Burlington, VT 05403-6243",,
Virginia,"Abingdon, VA","25016 Lee Hwy, Abingdon, VA 24211",36.7124422,-81.9288788
Virginia,"Ashland, VA Supercharger","12341 Washington Hwy, Ashland, VA 23005",37.745942299999996,-77.47197085316844
Virginia,"Bristol, VA - Clear Creek Rd","1200 Euclid Avenue, Bristol, VA 24201",36.60281,-82.191279
Virginia,"Charlottesville, VA - Proffit Road Supercharger","3267 Proffit Road, Charlottesville, VA 22901",38.1322738,-78.43456090000001
Virginia,Chester Supercharger,"11701 Jefferson Davis Highway, Chester, VA 23831",,
Virginia,"Fairfax, VA - Fairfax Boulevard Supercharger","9700 Fairfax Blvd, Fairfax, VA 22031",38.86475995,-77.27976665
Virginia,"Farmville, VA - S Main Street Supercharger","2016 S Main St, Farmville, VA 23901",37.27419352306045,-78.40114061964172
Virginia,"Glen Allen, VA Supercharger","9950 Brook Rd, Glen Allen, VA 23059",37.6690232,-77.46159062657736
Virginia,"King George, VA - Owens Drive Supercharger","17188 Owens Drive, King George, VA 22485",38.35313205,-77.04904435524392
Virginia,Lexington Supercharger,"880 N Lee Hwy, Lexington, VA 24450-3725",,
Virginia,"Madison Heights, VA Supercharger","4089 S Amherst Hwy, Madison Heights, VA 24572",37.46606265,-79.11813162440198
Virginia,"Mechanicsville, VA Supercharger","7847 Compass Point Ln, Mechanicsville, VA 23111",37.613257950000005,-77.32831816543953
Virginia,Norfolk Supercharger,"701 Newtown Rd, Norfolk, VA 23502",36.848255141580005,-76.18105059446903
Virginia,"Portsmouth, VA","720 London Blvd, Portsmouth, VA 23704",36.83697016161616,-76.30733052525252
Virginia,"Reston, VA Supercharger","1886 Metro Center Drive, Reston, VA 20190",38.95025264018662,-77.34080328236301
Virginia,"Richmond, VA Supercharger","4441 S Laburnum Ave, Richmond, VA 23231-0000",,
Virginia,"South Boston, VA - Philpott Road Supercharger","1007 Philpott Rd, South Boston, VA 24592",36.6866182,-78.900519
Virginia,"Staunton, VA Supercharger","1250 Richmond Avenue, Stauton, VA 24402",,
Virginia,Strasburg Supercharger,"119 Hite Lane, Strasburg, VA 22657-3716",,
Virginia,"Vienna, VA Supercharger","465 Maple Avenue, Vienna, VA 22180",,
Virginia,"Warfield, VA","129 Holland Road, Suffolk, VA 23434",36.72649963767356,-76.63247184526962
Virginia,Woodbridge Supercharger,"2700 Potomac Mills Circle, Woodbridge, VA 22192-4625",,
Virginia,"Woodstock, VA Supercharger","111 W Reservoir Rd, Woodstock, VA 22664",38.86691365,-78.51904215
Washington,Aberdeen Supercharger,"416 Wishkah Street, Aberdeen, WA 98520-4133",,
Washington,"Bellevue, WA Supercharger","10333 NE 1st Street, Bellevue, WA 98004",47.6107111,-122.20223388424768
Washington,"Burlington, WA - Bob's Burgers","9394 Old Highway 99 North, Burlington , WA 98233",48.5099446,-122.33787150706155
Washington,"Cle Elum, WA - West Davis Street","808 West Davis Street, Cle Elum , WA 98922",47.19483042857143,-120.95539773469388
Washington,"Ellensburg, WA - Canyon Road Supercharger","1500 Canyon Road, Ellensburg, WA 98926",46.97295603771695,-120.54025116659173
Washington,"Forks, WA Supercharger","100 Fern Hill Rd, Forks, WA 98331",47.942380850000006,-124.38521067971381
Washington,"Kelso, WA Supercharger","207 Three Rivers Dr, Kelso, WA 98626",46.143413694702474,-122.90044877349744
Washington,Leavenworth WA,"15251 US-2, Leavenworth, WA 98826",47.7553852,-120.73942979220939
Washington,"Lynnwood, WA","3625 148th St SW, Lynnwood , WA 98087",47.8645322,-122.2834159
Washington,"Moses Lake, WA Supercharger","2709 W Broadway Ave, Moses Lake, WA 98837",47.10501392409079,-119.31050548567981
Washington,"Renton, WA - 601 SW 41st St","601 SW 41st St, Renton, WA 98057",47.4425408,-122.22856348511601
Washington,"Sammamish, WA","430 228th Ave NE, Sammamish, WA 98074",47.613654749999995,-122.0350736557248
Washington,"Seattle, WA - Northgate Supercharger","401 NE Northgate Way, Seattle, WA 98125",47.7065519,-122.32744662602633
Washington,"Spokane, WA Supercharger","10506 West Aero Road, Spokane, WA 99224",47.5905781,-117.561115
Washington,"Tukwila, WA","333 Strander Blvd, Tukwila, WA 98188",47.4556087,-122.2565724
Washington,"Vancouver, WA - NE Vancouver Mall Drive (Wall Connector)","8700 NE Vancouver Mall Drive, Vancouver, WA 98662",45.6582552,-122.58331957304243
Washington,"Yakima, WA - E. Yakima Ave","1603 E Yakima Ave, Yakima, WA 98901",46.605651249999994,-120.48207295329107
West Virginia,"Charleston, WV Supercharger","2 Kanawha Boulevard E., Charleston, WV 25301",38.354369,-81.644361
West Virginia,"Lewisburg, WV","222 Hunter Lane, Lewisburg , WV 24901",37.8099393,-80.4312606
West Virginia,Morgantown Supercharger,"21 Asturias Lane, Morgantown, WV 26508-1324",,
West Virginia,"Parkersburg, WV Supercharger","1102 7th Street, Parkersburg, WV 26101",39.263372191191905,-81.54456334751187
West Virginia,"Sutton, WV","2001 Sutton Ln, Sutton, WV 26601",38.7008489,-80.664125
West Virginia,"Weston, WV Supercharger","39 Berlin Rd, Weston, WV 26452-8367",,
Wisconsin,"Black River Falls, WI","925 Commerce Dr, 54615, WI 54615",,
Wisconsin,"Glendale, WI Supercharger","5800 N Bayshore Dr, Glendale, WI 53217",43.12196935,-87.91411344386506
Wisconsin,"Janesville, WI Supercharger","2819 N Lexington Dr, Janesville, WI 35345",,
Wisconsin,"Lake Delton, WI Supercharger","1070 Wisconsin Dells Parkway South, Wisconsin Dells , WI 53965",,
Wisconsin,"Madison, WI - South Livingston Supercharger","722 W Main St, Madison, WI 53703",43.0660382295687,-89.39426858372013
Wisconsin,"Marinette, WI Supercharger","2301 Roosevelt Rd, Marinette, WI 54143",45.0794443,-87.6623407
Wisconsin,"Menomonie, WI Supercharger","207 Pine Ave Eest West, Menomonie, WI 54751",,
Wisconsin,"Oshkosh, WI Supercharger","2415 Westowne Avenue, Oshkosh, WI 54904",44.027718500000006,-88.59182422458457
Wisconsin,Sheboygan Supercharger,"595 S Taylor Drive, Sheboygan, WI 53081-4234",,
Wisconsin,"Waukesha, WI","1600 East Main Street, Waukesha , WI 53186",43.0222093,-88.2044269873338
Wyoming,"Cheyenne, WY Supercharger","1400 Dell Range Blvd., Cheyenne, WY 82009-4801",,
Wyoming,Gillette Supercharger,"211 Decker Court, Gillette, WY 82716-3320",,
Wyoming,"Lusk, WY Supercharger","730 S Main St, Lusk, WY 82225",42.75580385000001,-104.45224002712598
Wyoming,Sheridan Supercharger,"612 North Main Street, Sheridan, WY 82801-3633",,
